{
  "type": "FeatureCollection",
  "features": [
    {
      "type": "Feature",
      "properties": {
        "norad_id": 32275,
        "name": "COSMOS 2433 (720)",
        "group": "glo-ops",
        "lat": -25.468210405036004,
        "lon": -50.169379091209706,
        "alt_km": 19130.713254332837,
        "timestamp": "2025-12-10T16:57:11.897276+00:00",
        "meta_object_name": "COSMOS 2433 (720)",
        "meta_object_id": "2007-052A",
        "meta_epoch": "2025-12-10T06:34:19.672320",
        "meta_mean_motion": 2.13103813,
        "meta_eccentricity": 0.0005555,
        "meta_inclination": 65.6847,
        "meta_ra_of_asc_node": 322.2886,
        "meta_arg_of_pericenter": 252.6006,
        "meta_mean_anomaly": 107.3381,
        "meta_ephemeris_type": 0,
        "meta_classification_type": "U",
        "meta_norad_cat_id": 32275,
        "meta_element_set_no": 999,
        "meta_rev_at_epoch": 14103,
        "meta_bstar": 0,
        "meta_mean_motion_dot": -5e-07,
        "meta_mean_motion_ddot": 0,
        "tle_line1": "1 32275U 07052A   25344.27383880 -.00000050  00000+0  00000+0 0  9994",
        "tle_line2": "2 32275  65.6847 322.2886 0005555 252.6006 107.3381  2.13103813141033"
      },
      "geometry": {
        "type": "Point",
        "coordinates": [
          -50.169379091209706,
          -25.468210405036004
        ]
      }
    },
    {
      "type": "Feature",
      "properties": {
        "norad_id": 32276,
        "name": "COSMOS 2432 (719)",
        "group": "glo-ops",
        "lat": -64.95874169299171,
        "lon": -112.8269986633501,
        "alt_km": 19112.988197378098,
        "timestamp": "2025-12-10T16:57:11.897300+00:00",
        "meta_object_name": "COSMOS 2432 (719)",
        "meta_object_id": "2007-052B",
        "meta_epoch": "2025-12-10T13:56:19.351392",
        "meta_mean_motion": 2.13102999,
        "meta_eccentricity": 0.0011254,
        "meta_inclination": 65.7001,
        "meta_ra_of_asc_node": 322.4023,
        "meta_arg_of_pericenter": 311.5771,
        "meta_mean_anomaly": 228.309,
        "meta_ephemeris_type": 0,
        "meta_classification_type": "U",
        "meta_norad_cat_id": 32276,
        "meta_element_set_no": 999,
        "meta_rev_at_epoch": 14106,
        "meta_bstar": 0,
        "meta_mean_motion_dot": -5e-07,
        "meta_mean_motion_ddot": 0,
        "tle_line1": "1 32276U 07052B   25344.58077953 -.00000050  00000+0  00000+0 0  9990",
        "tle_line2": "2 32276  65.7001 322.4023 0011254 311.5771 228.3090  2.13102999141067"
      },
      "geometry": {
        "type": "Point",
        "coordinates": [
          -112.8269986633501,
          -64.95874169299171
        ]
      }
    },
    {
      "type": "Feature",
      "properties": {
        "norad_id": 32393,
        "name": "COSMOS 2434 (721)",
        "group": "glo-ops",
        "lat": -37.43692616294019,
        "lon": 39.895093506381855,
        "alt_km": 19144.33828555356,
        "timestamp": "2025-12-10T16:57:11.897315+00:00",
        "meta_object_name": "COSMOS 2434 (721)",
        "meta_object_id": "2007-065A",
        "meta_epoch": "2025-12-09T05:35:23.361792",
        "meta_mean_motion": 2.13101149,
        "meta_eccentricity": 0.00042885,
        "meta_inclination": 64.3147,
        "meta_ra_of_asc_node": 198.3216,
        "meta_arg_of_pericenter": 70.9906,
        "meta_mean_anomaly": 101.028,
        "meta_ephemeris_type": 0,
        "meta_classification_type": "U",
        "meta_norad_cat_id": 32393,
        "meta_element_set_no": 999,
        "meta_rev_at_epoch": 13972,
        "meta_bstar": 0,
        "meta_mean_motion_dot": 4.5e-07,
        "meta_mean_motion_ddot": 0,
        "tle_line1": "1 32393U 07065A   25343.23290928  .00000045  00000+0  00000+0 0  9997",
        "tle_line2": "2 32393  64.3147 198.3216 0004288  70.9906 101.0280  2.13101149139726"
      },
      "geometry": {
        "type": "Point",
        "coordinates": [
          39.895093506381855,
          -37.43692616294019
        ]
      }
    },
    {
      "type": "Feature",
      "properties": {
        "norad_id": 32395,
        "name": "COSMOS 2436 (723)",
        "group": "glo-ops",
        "lat": -4.157070809518972,
        "lon": -163.6580404276643,
        "alt_km": 19087.14971437936,
        "timestamp": "2025-12-10T16:57:11.897328+00:00",
        "meta_object_name": "COSMOS 2436 (723)",
        "meta_object_id": "2007-065C",
        "meta_epoch": "2025-12-08T02:01:11.627904",
        "meta_mean_motion": 2.13100022,
        "meta_eccentricity": 0.00177472,
        "meta_inclination": 64.3236,
        "meta_ra_of_asc_node": 198.4308,
        "meta_arg_of_pericenter": 9.2257,
        "meta_mean_anomaly": 134.6131,
        "meta_ephemeris_type": 0,
        "meta_classification_type": "U",
        "meta_norad_cat_id": 32395,
        "meta_element_set_no": 999,
        "meta_rev_at_epoch": 13965,
        "meta_bstar": 0,
        "meta_mean_motion_dot": 5.1e-07,
        "meta_mean_motion_ddot": 0,
        "tle_line1": "1 32395U 07065C   25342.08416236  .00000051  00000+0  00000+0 0  9990",
        "tle_line2": "2 32395  64.3236 198.4308 0017747   9.2257 134.6131  2.13100022139656"
      },
      "geometry": {
        "type": "Point",
        "coordinates": [
          -163.6580404276643,
          -4.157070809518972
        ]
      }
    },
    {
      "type": "Feature",
      "properties": {
        "norad_id": 36111,
        "name": "COSMOS 2456 (730)",
        "group": "glo-ops",
        "lat": 17.59436394168519,
        "lon": 85.9497033800674,
        "alt_km": 19126.8586908565,
        "timestamp": "2025-12-10T16:57:11.897340+00:00",
        "meta_object_name": "COSMOS 2456 (730)",
        "meta_object_id": "2009-070A",
        "meta_epoch": "2025-12-09T05:47:54.858624",
        "meta_mean_motion": 2.13103359,
        "meta_eccentricity": 0.00028383,
        "meta_inclination": 64.8981,
        "meta_ra_of_asc_node": 77.4578,
        "meta_arg_of_pericenter": 298.5783,
        "meta_mean_anomaly": 37.1692,
        "meta_ephemeris_type": 0,
        "meta_classification_type": "U",
        "meta_norad_cat_id": 36111,
        "meta_element_set_no": 999,
        "meta_rev_at_epoch": 12437,
        "meta_bstar": 0,
        "meta_mean_motion_dot": -1.7e-07,
        "meta_mean_motion_ddot": 0,
        "tle_line1": "1 36111U 09070A   25343.24160716 -.00000017  00000+0  00000+0 0  9999",
        "tle_line2": "2 36111  64.8981  77.4578 0002838 298.5783  37.1692  2.13103359124373"
      },
      "geometry": {
        "type": "Point",
        "coordinates": [
          85.9497033800674,
          17.59436394168519
        ]
      }
    },
    {
      "type": "Feature",
      "properties": {
        "norad_id": 36112,
        "name": "COSMOS 2457 (733)",
        "group": "glo-ops",
        "lat": 28.08685463729955,
        "lon": -117.21330584003694,
        "alt_km": 19114.51941527134,
        "timestamp": "2025-12-10T16:57:11.897373+00:00",
        "meta_object_name": "COSMOS 2457 (733)",
        "meta_object_id": "2009-070B",
        "meta_epoch": "2025-12-08T14:21:11.818944",
        "meta_mean_motion": 2.13100771,
        "meta_eccentricity": 0.0004866,
        "meta_inclination": 64.883,
        "meta_ra_of_asc_node": 77.3275,
        "meta_arg_of_pericenter": 155.8932,
        "meta_mean_anomaly": 175.3227,
        "meta_ephemeris_type": 0,
        "meta_classification_type": "U",
        "meta_norad_cat_id": 36112,
        "meta_element_set_no": 999,
        "meta_rev_at_epoch": 12436,
        "meta_bstar": 0,
        "meta_mean_motion_dot": -1.5e-07,
        "meta_mean_motion_ddot": 0,
        "tle_line1": "1 36112U 09070B   25342.59805346 -.00000015  00000+0  00000+0 0  9990",
        "tle_line2": "2 36112  64.8830  77.3275 0004866 155.8932 175.3227  2.13100771124367"
      },
      "geometry": {
        "type": "Point",
        "coordinates": [
          -117.21330584003694,
          28.08685463729955
        ]
      }
    },
    {
      "type": "Feature",
      "properties": {
        "norad_id": 36402,
        "name": "COSMOS 2460 (732)",
        "group": "glo-ops",
        "lat": 28.726904975471054,
        "lon": 126.38255046728837,
        "alt_km": 19130.32972958284,
        "timestamp": "2025-12-10T16:57:11.897390+00:00",
        "meta_object_name": "COSMOS 2460 (732)",
        "meta_object_id": "2010-007C",
        "meta_epoch": "2025-12-09T19:21:37.643616",
        "meta_mean_motion": 2.13105924,
        "meta_eccentricity": 0.00027883,
        "meta_inclination": 65.5316,
        "meta_ra_of_asc_node": 320.8726,
        "meta_arg_of_pericenter": 272.035,
        "meta_mean_anomaly": 265.828,
        "meta_ephemeris_type": 0,
        "meta_classification_type": "U",
        "meta_norad_cat_id": 36402,
        "meta_element_set_no": 999,
        "meta_rev_at_epoch": 12269,
        "meta_bstar": 0,
        "meta_mean_motion_dot": -4.9e-07,
        "meta_mean_motion_ddot": 0,
        "tle_line1": "1 36402U 10007C   25343.80668569 -.00000049  00000+0  00000+0 0  9990",
        "tle_line2": "2 36402  65.5316 320.8726 0002788 272.0350 265.8280  2.13105924122693"
      },
      "geometry": {
        "type": "Point",
        "coordinates": [
          126.38255046728837,
          28.726904975471054
        ]
      }
    }
  ]
}